H1 CPF 01  gfz 2022 11 25 01  8291 terrasarx 
H2 0702601  6201 31698    2022 11 25 00 59 42 2022 11 30 00 00 42   120 1 1  0 0 0
H9
10 0 59909  49662.000000  0   -2615273.725  -3720925.484  -5181281.397
10 0 59909  49782.000000  0   -2379970.636  -3017272.353  -5724184.411
10 0 59909  49902.000000  0   -2090633.324  -2265849.415  -6167042.665
10 0 59909  50022.000000  0   -1751600.396  -1480638.573  -6502208.189
10 0 59909  50142.000000  0   -1368305.583   -676094.178  -6723905.617
10 0 59909  50262.000000  0    -947190.457    133120.311  -6828320.556
10 0 59909  50382.000000  0    -495597.456    932393.616  -6813657.557
10 0 59909  50502.000000  0     -21644.154   1707423.641  -6680167.524
10 0 59909  50622.000000  0     465917.789   2444466.434  -6430144.187
10 0 59909  50742.000000  0     957860.245   3130575.689  -6067891.200
10 0 59909  50862.000000  0    1444649.678   3753828.474  -5599655.310
10 0 59909  50982.000000  0    1916627.566   4303532.544  -5033528.597
10 0 59909  51102.000000  0    2364199.321   4770413.823  -4379320.695
10 0 59909  51222.000000  0    2778027.613   5146780.417  -3648399.035
10 0 59909  51342.000000  0    3149225.897   5426657.950  -2853499.900
10 0 59909  51462.000000  0    3469549.294   5605894.478  -2008512.363
10 0 59909  51582.000000  0    3731577.387   5682230.420  -1128237.271
10 0 59909  51702.000000  0    3928883.808   5655332.032   -228125.760
10 0 59909  51822.000000  0    4056188.165   5526786.217    675997.484
10 0 59909  51942.000000  0    4109486.529   5300055.967   1568220.090
10 0 59909  52062.000000  0    4086156.395   4980397.798   2432829.314
10 0 59909  52182.000000  0    3985035.149   4574745.835   3254598.033
10 0 59909  52302.000000  0    3806466.098   4091558.644   4019061.339
10 0 59909  52422.000000  0    3552315.024   3540638.764   4712774.027
10 0 59909  52542.000000  0    3225955.997   2932929.768   5323550.871
10 0 59909  52662.000000  0    2832222.793   2280291.777   5840680.021
10 0 59909  52782.000000  0    2377334.817   1595264.716   6255104.629
10 0 59909  52902.000000  0    1868795.786    890823.483   6559576.500
10 0 59909  53022.000000  0    1315266.433    180130.281   6748775.965
10 0 59909  53142.000000  0     726414.927   -523710.041   6819399.578
10 0 59909  53262.000000  0     112747.355  -1207891.686   6770215.439
10 0 59909  53382.000000  0    -514580.016  -1860140.868   6602082.919
10 0 59909  53502.000000  0   -1143963.466  -2468935.982   6317937.793
10 0 59909  53622.000000  0   -1763564.805  -3023711.013   5922742.594
10 0 59909  53742.000000  0   -2361531.651  -3515040.000   5423406.262
10 0 59909  53862.000000  0   -2926225.383  -3934801.479   4828671.522
10 0 59909  53982.000000  0   -3446452.005  -4276318.223   4148967.597
10 0 59909  54102.000000  0   -3911687.774  -4534468.294   3396230.318
10 0 59909  54222.000000  0   -4312294.992  -4705766.091   2583694.143
10 0 59909  54342.000000  0   -4639724.918  -4788411.971   1725659.210
10 0 59909  54462.000000  0   -4886702.688  -4782307.621    837235.374
10 0 59909  54582.000000  0   -5047388.508  -4689036.413    -65930.354
10 0 59909  54702.000000  0   -5117511.508  -4511809.596   -967937.652
10 0 59909  54822.000000  0   -5094472.167  -4255379.271  -1852922.537
10 0 59909  54942.000000  0   -4977409.832  -3925919.458  -2705345.497
10 0 59909  55062.000000  0   -4767234.048  -3530879.553  -3510269.923
10 0 59909  55182.000000  0   -4466620.809  -3078815.419  -4253625.782
10 0 59909  55302.000000  0   -4079974.203  -2579202.133  -4922454.469
10 0 59909  55422.000000  0   -3613354.331  -2042232.811  -5505129.753
10 0 59909  55542.000000  0   -3074374.547  -1478609.023  -5991551.681
10 0 59909  55662.000000  0   -2472070.840   -899326.906  -6373311.455
10 0 59909  55782.000000  0   -1816745.398   -315463.720  -6643825.635
10 0 59909  55902.000000  0   -1119787.990    262030.779  -6798437.516
10 0 59909  56022.000000  0    -393480.499    822534.234  -6834487.671
10 0 59909  56142.000000  0     349214.879   1355942.168  -6751354.801
10 0 59909  56262.000000  0    1094880.201   1852844.719  -6550466.012
10 0 59909  56382.000000  0    1829879.314   2304689.819  -6235276.876
10 0 59909  56502.000000  0    2540602.341   2703928.992  -5811218.150
10 0 59909  56622.000000  0    3213714.469   3044143.631  -5285610.820
10 0 59909  56742.000000  0    3836403.871   3320149.704  -4667551.243
10 0 59909  56862.000000  0    4396627.880   3528080.687  -3967765.589
10 0 59909  56982.000000  0    4883351.011   3665444.921  -3198433.112
10 0 59909  57102.000000  0    5286768.351   3731155.982  -2372980.517
10 0 59909  57222.000000  0    5598510.012   3725536.250  -1505851.432
10 0 59909  57342.000000  0    5811821.830   3650291.305   -612252.936
10 0 59909  57462.000000  0    5921716.308   3508455.784    292114.587
10 0 59909  57582.000000  0    5925090.782   3304311.910   1191339.713
10 0 59909  57702.000000  0    5820807.768   3043281.798   2069588.525
10 0 59909  57822.000000  0    5609735.461   2731797.222   2911391.939
10 0 59909  57942.000000  0    5294748.008   2377149.620   3701927.023
10 0 59909  58062.000000  0    4880683.693   1987323.510   4427284.573
10 0 59909  58182.000000  0    4374263.659   1570818.795   5074715.581
10 0 59909  58302.000000  0    3783977.394   1136466.570   5632855.623
10 0 59909  58422.000000  0    3119930.383    693242.149   6091923.433
10 0 59909  58542.000000  0    2393662.253    250079.834   6443885.045
10 0 59909  58662.000000  0    1617942.112   -184305.182   6682587.579
10 0 59909  58782.000000  0     806541.399   -601586.984   6803862.558
10 0 59909  58902.000000  0     -26013.278   -993987.988   6805594.427
10 0 59909  59022.000000  0    -864700.428  -1354423.088   6687754.194
10 0 59909  59142.000000  0   -1694273.974  -1676627.707   6452398.929
10 0 59909  59262.000000  0   -2499538.490  -1955266.198   6103636.894
10 0 59909  59382.000000  0   -3265625.854  -2186019.948   5647562.287
10 0 59909  59502.000000  0   -3978273.785  -2365656.206   5092156.951
10 0 59909  59622.000000  0   -4624096.713  -2492074.112   4447155.308
10 0 59909  59742.000000  0   -5190843.422  -2564326.479   3723877.603
10 0 59909  59862.000000  0   -5667636.334  -2582616.684   2935034.095
10 0 59909  59982.000000  0   -6045188.524  -2548271.808   2094503.227
10 0 59909  60102.000000  0   -6315993.845  -2463693.174   1217085.420
10 0 59909  60222.000000  0   -6474482.823  -2332282.866    318235.246
10 0 59909  60342.000000  0   -6517139.591  -2158348.451   -586218.174
10 0 59909  60462.000000  0   -6442579.044  -1946988.922  -1480359.561
10 0 59909  60582.000000  0   -6251578.932  -1703964.718  -2348476.684
10 0 59909  60702.000000  0   -5947068.575  -1435555.612  -3175343.061
10 0 59909  60822.000000  0   -5534075.116  -1148410.069  -3946488.844
10 0 59909  60942.000000  0   -5019629.384   -849389.976  -4648454.612
10 0 59909  61062.000000  0   -4412634.197   -545414.193  -5269023.376
10 0 59909  61182.000000  0   -3723698.124   -243305.317  -5797426.601
10 0 59909  61302.000000  0   -2964939.978     50357.227  -6224520.864
10 0 59909  61422.000000  0   -2149769.624    329374.477  -6542933.906
10 0 59909  61542.000000  0   -1292648.737    588052.540  -6747180.617
10 0 59909  61662.000000  0    -408835.712    821313.514  -6833747.374
10 0 59909  61782.000000  0     485880.472   1024791.779  -6801144.670
10 0 59909  61902.000000  0    1375454.145   1194912.384  -6649931.140
10 0 59909  62022.000000  0    2243865.042   1328952.828  -6382707.091
10 0 59909  62142.000000  0    3075401.501   1425086.528  -6004074.367
10 0 59909  62262.000000  0    3854940.859   1482406.596  -5520564.080
10 0 59909  62382.000000  0    4568222.441   1500930.148  -4940534.948
10 0 59909  62502.000000  0    5202111.954   1481583.441  -4274040.837
10 0 59909  62622.000000  0    5744849.899   1426167.272  -3532666.281
10 0 59909  62742.000000  0    6186278.537   1337303.005  -2729333.672
10 0 59909  62862.000000  0    6518043.877   1218360.296  -1878084.070
10 0 59909  62982.000000  0    6733766.579   1073368.025   -993832.752
10 0 59909  63102.000000  0    6829175.575    906909.437    -92104.911
10 0 59909  63222.000000  0    6802200.112    724004.917    811242.812
10 0 59909  63342.000000  0    6653019.484    529985.364   1700307.850
10 0 59909  63462.000000  0    6384068.317    330357.720   2559431.356
10 0 59909  63582.000000  0    5999993.901    130667.739   3373482.912
10 0 59909  63702.000000  0    5507570.068    -63637.433   4128134.041
10 0 59909  63822.000000  0    4915568.640   -247341.456   4810113.705
10 0 59909  63942.000000  0    4234594.403   -415584.697   5407444.107
10 0 59909  64062.000000  0    3476883.382   -563980.341   5909649.146
10 0 59909  64182.000000  0    2656074.340   -688716.479   6307933.336
10 0 59909  64302.000000  0    1786956.869   -786644.113   6595330.064
10 0 59909  64422.000000  0     885200.832   -855348.801   6766818.574
10 0 59909  64542.000000  0     -32929.625   -893204.800   6819406.254
10 0 59909  64662.000000  0    -950869.645   -899410.478   6752176.227
10 0 59909  64782.000000  0   -1852051.252   -874004.923   6566301.637
10 0 59909  64902.000000  0   -2720200.695   -817864.648   6265026.031
10 0 59909  65022.000000  0   -3539631.331   -732680.965   5853611.414
10 0 59909  65142.000000  0   -4295529.824   -620918.515   5339253.232
10 0 59909  65262.000000  0   -4974229.800   -485756.019   4730960.975
10 0 59909  65382.000000  0   -5563466.509   -331009.541   4039405.088
10 0 59909  65502.000000  0   -6052607.117   -161040.047   3276732.863
10 0 59909  65622.000000  0   -6432851.764     19353.034   2456357.188
10 0 59909  65742.000000  0   -6697402.673    205050.381   1592719.827
10 0 59909  65862.000000  0   -6841594.681    390739.777    701032.318
10 0 59909  65982.000000  0   -6862983.576    571048.525   -202999.480
10 0 59909  66102.000000  0   -6761389.292    740678.468  -1103461.272
99
